CCSDS_OMM_VERS = 2.0
CREATION_DATE  = 
ORIGINATOR     = 

OBJECT_NAME    = SL-14 R/B
OBJECT_ID      = 1986-046B
CENTER_NAME    = EARTH
REF_FRAME      = TEME
TIME_SYSTEM    = UTC
MEAN_ELEMENT_THEORY = SGP/SGP4

EPOCH          = 2026-03-15T01:27:51.469632
MEAN_MOTION    = 14.85596186
ECCENTRICITY   = .00223387
INCLINATION    = 82.4783
RA_OF_ASC_NODE = 75.1047
ARG_OF_PERICENTER = 206.8387
MEAN_ANOMALY   = 153.1675

EPHEMERIS_TYPE = 0
CLASSIFICATION_TYPE = U
NORAD_CAT_ID   = 16792
ELEMENT_SET_NO = 999
REV_AT_EPOCH   = 12720
BSTAR          = .60316022E-4
MEAN_MOTION_DOT = .548E-5
MEAN_MOTION_DDOT = 0

CCSDS_OMM_VERS = 2.0
CREATION_DATE  = 
ORIGINATOR     = 

OBJECT_NAME    = SL-14 R/B
OBJECT_ID      = 1986-055B
CENTER_NAME    = EARTH
REF_FRAME      = TEME
TIME_SYSTEM    = UTC
MEAN_ELEMENT_THEORY = SGP/SGP4

EPOCH          = 2026-03-15T04:34:43.089600
MEAN_MOTION    = 14.85647810
ECCENTRICITY   = .0017757
INCLINATION    = 82.5190
RA_OF_ASC_NODE = 121.5032
ARG_OF_PERICENTER = 317.5200
MEAN_ANOMALY   = 102.0903

EPHEMERIS_TYPE = 0
CLASSIFICATION_TYPE = U
NORAD_CAT_ID   = 16882
ELEMENT_SET_NO = 999
REV_AT_EPOCH   = 12018
BSTAR          = .46890588E-4
MEAN_MOTION_DOT = .431E-5
MEAN_MOTION_DDOT = 0

CCSDS_OMM_VERS = 2.0
CREATION_DATE  = 
ORIGINATOR     = 

OBJECT_NAME    = AJISAI (EGS)
OBJECT_ID      = 1986-061A
CENTER_NAME    = EARTH
REF_FRAME      = TEME
TIME_SYSTEM    = UTC
MEAN_ELEMENT_THEORY = SGP/SGP4

EPOCH          = 2026-03-15T07:47:14.301312
MEAN_MOTION    = 12.44515679
ECCENTRICITY   = .00112833
INCLINATION    = 50.0084
RA_OF_ASC_NODE = 76.0197
ARG_OF_PERICENTER = 301.5020
MEAN_ANOMALY   = 71.7644

EPHEMERIS_TYPE = 0
CLASSIFICATION_TYPE = U
NORAD_CAT_ID   = 16908
ELEMENT_SET_NO = 999
REV_AT_EPOCH   = 46870
BSTAR          = .51550826E-4
MEAN_MOTION_DOT = -.9E-6
MEAN_MOTION_DDOT = 0

CCSDS_OMM_VERS = 2.0
CREATION_DATE  = 
ORIGINATOR     = 

OBJECT_NAME    = SL-14 R/B
OBJECT_ID      = 1987-024B
CENTER_NAME    = EARTH
REF_FRAME      = TEME
TIME_SYSTEM    = UTC
MEAN_ELEMENT_THEORY = SGP/SGP4

EPOCH          = 2026-03-15T07:03:59.956416
MEAN_MOTION    = 14.86137644
ECCENTRICITY   = .00168491
INCLINATION    = 82.5244
RA_OF_ASC_NODE = 87.4942
ARG_OF_PERICENTER = 239.7466
MEAN_ANOMALY   = 120.2083

EPHEMERIS_TYPE = 0
CLASSIFICATION_TYPE = U
NORAD_CAT_ID   = 17567
ELEMENT_SET_NO = 999
REV_AT_EPOCH   = 8896
BSTAR          = .52686945E-4
MEAN_MOTION_DOT = .487E-5
MEAN_MOTION_DDOT = 0

CCSDS_OMM_VERS = 2.0
CREATION_DATE  = 
ORIGINATOR     = 

OBJECT_NAME    = COSMOS 1833
OBJECT_ID      = 1987-027A
CENTER_NAME    = EARTH
REF_FRAME      = TEME
TIME_SYSTEM    = UTC
MEAN_ELEMENT_THEORY = SGP/SGP4

EPOCH          = 2026-03-15T00:40:12.541152
MEAN_MOTION    = 14.13053299
ECCENTRICITY   = .00239993
INCLINATION    = 70.9211
RA_OF_ASC_NODE = 314.7998
ARG_OF_PERICENTER = 206.9492
MEAN_ANOMALY   = 153.0385

EPHEMERIS_TYPE = 0
CLASSIFICATION_TYPE = U
NORAD_CAT_ID   = 17589
ELEMENT_SET_NO = 999
REV_AT_EPOCH   = 1107
BSTAR          = -.81492102E-4
MEAN_MOTION_DOT = -.201E-5
MEAN_MOTION_DDOT = 0

CCSDS_OMM_VERS = 2.0
CREATION_DATE  = 
ORIGINATOR     = 

OBJECT_NAME    = SL-16 R/B
OBJECT_ID      = 1987-027B
CENTER_NAME    = EARTH
REF_FRAME      = TEME
TIME_SYSTEM    = UTC
MEAN_ELEMENT_THEORY = SGP/SGP4

EPOCH          = 2026-03-15T06:26:34.847232
MEAN_MOTION    = 14.17166638
ECCENTRICITY   = .00031726
INCLINATION    = 70.9992
RA_OF_ASC_NODE = 264.7380
ARG_OF_PERICENTER = 130.0198
MEAN_ANOMALY   = 230.1204

EPHEMERIS_TYPE = 0
CLASSIFICATION_TYPE = U
NORAD_CAT_ID   = 17590
ELEMENT_SET_NO = 999
REV_AT_EPOCH   = 1613
BSTAR          = .33620932E-4
MEAN_MOTION_DOT = .2E-6
MEAN_MOTION_DDOT = 0

CCSDS_OMM_VERS = 2.0
CREATION_DATE  = 
ORIGINATOR     = 

OBJECT_NAME    = SL-14 R/B
OBJECT_ID      = 1987-038B
CENTER_NAME    = EARTH
REF_FRAME      = TEME
TIME_SYSTEM    = UTC
MEAN_ELEMENT_THEORY = SGP/SGP4

EPOCH          = 2026-03-15T02:09:53.851104
MEAN_MOTION    = 14.85374560
ECCENTRICITY   = .00201133
INCLINATION    = 82.4992
RA_OF_ASC_NODE = 291.7196
ARG_OF_PERICENTER = 143.2143
MEAN_ANOMALY   = 217.0458

EPHEMERIS_TYPE = 0
CLASSIFICATION_TYPE = U
NORAD_CAT_ID   = 17912
ELEMENT_SET_NO = 999
REV_AT_EPOCH   = 8003
BSTAR          = .54146871E-4
MEAN_MOTION_DOT = .492E-5
MEAN_MOTION_DDOT = 0

CCSDS_OMM_VERS = 2.0
CREATION_DATE  = 
ORIGINATOR     = 

OBJECT_NAME    = COSMOS 1844
OBJECT_ID      = 1987-041A
CENTER_NAME    = EARTH
REF_FRAME      = TEME
TIME_SYSTEM    = UTC
MEAN_ELEMENT_THEORY = SGP/SGP4

EPOCH          = 2026-03-15T06:28:10.953408
MEAN_MOTION    = 14.14551198
ECCENTRICITY   = .00303033
INCLINATION    = 70.9005
RA_OF_ASC_NODE = 22.4059
ARG_OF_PERICENTER = 9.6778
MEAN_ANOMALY   = 350.4921

EPHEMERIS_TYPE = 0
CLASSIFICATION_TYPE = U
NORAD_CAT_ID   = 17973
ELEMENT_SET_NO = 999
REV_AT_EPOCH   = 437
BSTAR          = -.27001365E-4
MEAN_MOTION_DOT = -.1E-5
MEAN_MOTION_DDOT = 0

CCSDS_OMM_VERS = 2.0
CREATION_DATE  = 
ORIGINATOR     = 

OBJECT_NAME    = SL-14 R/B
OBJECT_ID      = 1987-055B
CENTER_NAME    = EARTH
REF_FRAME      = TEME
TIME_SYSTEM    = UTC
MEAN_ELEMENT_THEORY = SGP/SGP4

EPOCH          = 2026-03-15T04:49:14.648736
MEAN_MOTION    = 14.85636064
ECCENTRICITY   = .00206531
INCLINATION    = 82.5028
RA_OF_ASC_NODE = 343.8387
ARG_OF_PERICENTER = 359.9032
MEAN_ANOMALY   = 0.2176

EPHEMERIS_TYPE = 0
CLASSIFICATION_TYPE = U
NORAD_CAT_ID   = 18153
ELEMENT_SET_NO = 999
REV_AT_EPOCH   = 7075
BSTAR          = .56193674E-4
MEAN_MOTION_DOT = .512E-5
MEAN_MOTION_DDOT = 0

CCSDS_OMM_VERS = 2.0
CREATION_DATE  = 
ORIGINATOR     = 

OBJECT_NAME    = COSMOS 1867
OBJECT_ID      = 1987-060A
CENTER_NAME    = EARTH
REF_FRAME      = TEME
TIME_SYSTEM    = UTC
MEAN_ELEMENT_THEORY = SGP/SGP4

EPOCH          = 2026-03-14T23:02:52.705536
MEAN_MOTION    = 14.31503866
ECCENTRICITY   = .00145708
INCLINATION    = 65.0102
RA_OF_ASC_NODE = 291.9450
ARG_OF_PERICENTER = 278.9657
MEAN_ANOMALY   = 80.9778

EPHEMERIS_TYPE = 0
CLASSIFICATION_TYPE = U
NORAD_CAT_ID   = 18187
ELEMENT_SET_NO = 999
REV_AT_EPOCH   = 2069
BSTAR          = .35794457E-4
MEAN_MOTION_DOT = -.5E-7
MEAN_MOTION_DDOT = 0

CCSDS_OMM_VERS = 2.0
CREATION_DATE  = 
ORIGINATOR     = 

OBJECT_NAME    = SL-14 R/B
OBJECT_ID      = 1988-001B
CENTER_NAME    = EARTH
REF_FRAME      = TEME
TIME_SYSTEM    = UTC
MEAN_ELEMENT_THEORY = SGP/SGP4

EPOCH          = 2026-03-15T06:20:03.291072
MEAN_MOTION    = 14.85535034
ECCENTRICITY   = .00171903
INCLINATION    = 82.5159
RA_OF_ASC_NODE = 190.1186
ARG_OF_PERICENTER = 216.1037
MEAN_ANOMALY   = 143.9020

EPHEMERIS_TYPE = 0
CLASSIFICATION_TYPE = U
NORAD_CAT_ID   = 18749
ELEMENT_SET_NO = 999
REV_AT_EPOCH   = 4285
BSTAR          = .6434101E-4
MEAN_MOTION_DOT = .581E-5
MEAN_MOTION_DDOT = 0

CCSDS_OMM_VERS = 2.0
CREATION_DATE  = 
ORIGINATOR     = 

OBJECT_NAME    = COSMOS 1933
OBJECT_ID      = 1988-020A
CENTER_NAME    = EARTH
REF_FRAME      = TEME
TIME_SYSTEM    = UTC
MEAN_ELEMENT_THEORY = SGP/SGP4

EPOCH          = 2026-03-14T22:21:38.073024
MEAN_MOTION    = 15.18040732
ECCENTRICITY   = .0004324
INCLINATION    = 82.5104
RA_OF_ASC_NODE = 245.7245
ARG_OF_PERICENTER = 165.6738
MEAN_ANOMALY   = 194.4619

EPHEMERIS_TYPE = 0
CLASSIFICATION_TYPE = U
NORAD_CAT_ID   = 18958
ELEMENT_SET_NO = 999
REV_AT_EPOCH   = 5102
BSTAR          = .26406821E-3
MEAN_MOTION_DOT = .5404E-4
MEAN_MOTION_DDOT = 0

