SL-14 R/B               
1 16792U 86046B   26074.06101238  .00000548  00000+0  60316-4 0  9995
2 16792  82.4783  75.1047 0022338 206.8387 153.1675 14.85596186127208
SL-14 R/B               
1 16882U 86055B   26074.19077650  .00000431  00000+0  46891-4 0  9992
2 16882  82.5190 121.5032 0017757 317.5200 102.0903 14.85647810120182
AJISAI (EGS)            
1 16908U 86061A   26074.32447108 -.00000090  00000+0  51551-4 0  9993
2 16908  50.0084  76.0197 0011283 301.5020  71.7644 12.44515679468707
SL-14 R/B               
1 17567U 87024B   26074.29444394  .00000487  00000+0  52687-4 0  9995
2 17567  82.5244  87.4942 0016849 239.7466 120.2083 14.86137644 88963
COSMOS 1833             
1 17589U 87027A   26074.02792293 -.00000201  00000+0 -81492-4 0  9999
2 17589  70.9211 314.7998 0023999 206.9492 153.0385 14.13053299 11078
SL-16 R/B               
1 17590U 87027B   26074.26845888  .00000020  00000+0  33621-4 0  9994
2 17590  70.9992 264.7380 0003172 130.0198 230.1204 14.17166638 16131
SL-14 R/B               
1 17912U 87038B   26074.09020661  .00000492  00000+0  54147-4 0  9998
2 17912  82.4992 291.7196 0020113 143.2143 217.0458 14.85374560 80037
COSMOS 1844             
1 17973U 87041A   26074.26957122 -.00000100  00000+0 -27001-4 0  9996
2 17973  70.9005  22.4059 0030303   9.6778 350.4921 14.14551198  4375
SL-14 R/B               
1 18153U 87055B   26074.20086399  .00000512  00000+0  56194-4 0  9995
2 18153  82.5028 343.8387 0020653 359.9032   0.2176 14.85636064 70756
COSMOS 1867             
1 18187U 87060A   26073.96033224 -.00000005  00000+0  35794-4 0  9990
2 18187  65.0102 291.9450 0014570 278.9657  80.9778 14.31503866 20695
SL-14 R/B               
1 18749U 88001B   26074.26392698  .00000581  00000+0  64341-4 0  9995
2 18749  82.5159 190.1186 0017190 216.1037 143.9020 14.85535034 42851
COSMOS 1933             
1 18958U 88020A   26073.93169066  .00005404  00000+0  26407-3 0  9991
2 18958  82.5104 245.7245 0004324 165.6738 194.4619 15.18040732 51024
